CAS-2T & KS-1Q          
1 41847U 16066G   21164.43969232  .00000103  00000-0  26550-4 0  9991
2 41847  98.6012 223.5540 0364304 232.2636 124.5020 14.38195024241308
NAYIF-1 (EO-88)         
1 42017U 17008BX  21164.43581485  .00002439  00000-0  91457-4 0  9990
2 42017  97.3155 232.1073 0007638 117.0567 243.1453 15.28173727240646
ZHUHAI-1 02 (CAS-4B)    
1 42759U 17034B   21164.46695985  .00000239  00000-0  27682-4 0  9991
2 42759  43.0165 202.9996 0007545 145.1870 348.3222 15.10224915220549
ZHUHAI-1 01 (CAS-4A)    
1 42761U 17034D   21164.37048957  .00000275  00000-0  29789-4 0  9995
2 42761  43.0165 202.5864 0007802 144.5266 231.7210 15.10312191220535
MAX VALIER SAT          
1 42778U 17036P   21163.70659393  .00001313  00000-0  57643-4 0  9997
2 42778  97.2550 212.4732 0011697 184.2301 175.8840 15.23602365220563
RADFXSAT (FOX-1B)       
1 43017U 17073E   21164.27559567  .00000686  00000-0  58719-4 0  9997
2 43017  97.7074  68.4277 0253878 314.3072  43.7567 14.79560497192509
FOX-1D (AO-92)          
1 43137U 18004AC  21164.13411814  .00001465  00000-0  61115-4 0  9992
2 43137  97.4067 238.2093 0007723 217.5041 142.5659 15.25251038189999
DIWATA-2B               
1 43678U 18084H   21164.29482383 -.00000196  00000-0 -13719-4 0  9995
2 43678  97.9235 289.5524 0011278  67.3139 292.9310 14.91750216142816
ES'HAIL 2               
1 43700U 18090A   21164.08590958  .00000156  00000-0  00000+0 0  9991
2 43700   0.0136  49.5560 0001006  49.9542 218.8460  1.00273715  9560
FOX-1CLIFF (AO-95)      
1 43770U 18099N   21163.76580795  .00000085  00000-0  12834-4 0  9993
2 43770  97.6651 234.0565 0016051  75.2513 285.0485 14.95325927137750
ITASAT 1                
1 43786U 18099AE  21163.75285275  .00000618  00000-0  60681-4 0  9999
2 43786  97.6672 234.7184 0016706  69.2790 291.0220 14.95620365137782
JY1SAT (JO-97)          
1 43803U 18099AX  21163.71748100  .00000166  00000-0  19937-4 0  9992
2 43803  97.6628 234.4363 0016395  69.1177 291.1798 14.95863412137784
UWE-4                   
1 43880U 18111E   21164.30590677  .00000459  00000-0  45009-4 0  9996
2 43880  97.6881  72.1099 0013738 113.7467 246.5197 14.96873808132467
PSAT2 (NO-104)          
1 44354U 19036R   21164.28261950  .00011618  00000-0  15140-3 0  9997
2 44354  28.5281 154.8476 0325730 230.7856 126.3388 15.13400780108339
BRICSAT2 (NO-103)       
1 44355U 19036S   21163.57663365  .00036890  00000-0  40612-3 0  9996
2 44355  28.5264 115.3054 0264641 295.2626  62.0767 15.29261272108682
JAISAT-1                
1 44419U 19038F   21164.40768104  .00001175  00000-0  68613-4 0  9999
2 44419  97.5883 129.1232 0020231 330.7594  29.2503 15.13762121107180
DUCHIFAT-3              
1 44854U 19089C   21164.26524640  .00000481  00000-0  44831-4 0  9992
2 44854  36.9646 125.4016 0007014 103.3456 256.8083 14.99498817 82477
RS-44 & BREEZE-KM R/B   
1 44909U 19096E   21163.78038216  .00000031  00000-0  71993-4 0  9996
2 44909  82.5203 115.9176 0218502 103.9250 258.6258 12.79710153 68226
ORBITAL FACTORY 2 (OF-2)
1 45113U 19071C   21164.11066054  .00003659  00000-0  11438-3 0  9992
2 45113  51.6431  58.5688 0011175 278.5447  81.4270 15.35748101 76503
HUSKYSAT-1 (HO-107)     
1 45119U 19071J   21163.73171228  .00002685  00000-0  86817-4 0  9997
2 45119  51.6428  59.7838 0010533 273.4889  86.4890 15.35771091 76446
BY70-2                  
1 45857U 20042B   21164.51265969  .00001277  00000-0  18831-3 0  9995
2 45857  97.9839 240.3005 0010056 218.4831 141.5674 14.77022487 50969
SALSAT                  
1 46495U 20068K   21163.86874163 -.00000084  00000-0 -16021-5 0  9999
2 46495  97.6951 101.3920 0019037  86.7887 273.5516 15.03458601 38640
BY70-3                  
1 46839U 20079N   21164.47432128  .00003260  00000-0  10252-3 0  9997
2 46839  97.2407 238.4090 0006099 208.4910 278.5567 15.33659325 33597
RADFXSAT-2 (AO-109)     
1 47311U 21002C   21164.41551080  .00000966  00000-0  53900-4 0  9991
2 47311  60.6846 306.3119 0036067  45.8160 314.5880 15.21643698 22263
UVSQ-SAT                
1 47438U 21006AB  21164.41384946  .00000912  00000-0  55044-4 0  9992
2 47438  97.4873 225.7099 0014356 110.2186 250.0591 15.13132766 21446
DIY-1 (ARDUIQUBE)       
1 47963U 21022AH  21163.51536697  .00002002  00000-0  13655-3 0  9998
2 47963  97.5595  65.9367 0018782 327.5267  32.4804 15.07232179 11151
